start=new Date('2021-12-13T00:00:00.000Z').valueOf();
sats=[{"SITE":"AFETR","ARG_OF_PERICENTER":"57.2770","EPHEMERIS_TYPE":"0","INCLINATION":"53.0544","REF_FRAME":"TEME","OBJECT_ID":"2020-019L","APOAPSIS":"548.672","TIME_SYSTEM":"UTC","EPOCH":"2021-12-12T19:12:23.890464","LAUNCH_DATE":"2020-03-18","ECCENTRICITY":"0.00020720","COUNTRY_CODE":"US","PERIAPSIS":"545.802","MEAN_MOTION_DOT":"-0.00000857","TLE_LINE2":"2 45370  53.0544 275.3562 0002072  57.2770 302.8418 15.06392417 96437","CLASSIFICATION_TYPE":"U","TLE_LINE1":"1 45370U 20019L   21346.80027651 -.00000857  00000-0 -38659-4 0  9993","SEMIMAJOR_AXIS":"6925.372","ELEMENT_SET_NO":"999","GP_ID":"191584355","OBJECT_TYPE":"PAYLOAD","MEAN_MOTION_DDOT":"0.0000000000000","OBJECT_NAME":"STARLINK-1281","MEAN_MOTION":"15.06392417","MEAN_ANOMALY":"302.8418","NORAD_CAT_ID":"45370","CENTER_NAME":"EARTH","BSTAR":"-0.00003865900000","MEAN_ELEMENT_THEORY":"SGP4","RCS_SIZE":"LARGE","DECAY_DATE":null,"PERIOD":"95.593","RA_OF_ASC_NODE":"275.3562","FILE":"3238376","REV_AT_EPOCH":"9643"},{"ECCENTRICITY":"0.00024740","LAUNCH_DATE":"2020-03-18","MEAN_MOTION_DOT":"-0.00000705","PERIAPSIS":"545.520","COUNTRY_CODE":"US","SITE":"AFETR","ARG_OF_PERICENTER":"56.9545","INCLINATION":"53.0535","EPHEMERIS_TYPE":"0","TIME_SYSTEM":"UTC","EPOCH":"2021-12-12T21:30:23.905728","OBJECT_ID":"2020-019M","REF_FRAME":"TEME","APOAPSIS":"548.947","MEAN_ANOMALY":"303.1682","MEAN_MOTION":"15.06393520","FILE":"3238376","RA_OF_ASC_NODE":"274.9295","REV_AT_EPOCH":"9644","CENTER_NAME":"EARTH","NORAD_CAT_ID":"45371","DECAY_DATE":null,"RCS_SIZE":"LARGE","PERIOD":"95.593","BSTAR":"-0.00002838600000","MEAN_ELEMENT_THEORY":"SGP4","CLASSIFICATION_TYPE":"U","TLE_LINE2":"2 45371  53.0535 274.9295 0002474  56.9545 303.1682 15.06393520 96442","GP_ID":"191585602","ELEMENT_SET_NO":"999","TLE_LINE1":"1 45371U 20019M   21346.89611002 -.00000705  00000-0 -28386-4 0  9990","SEMIMAJOR_AXIS":"6925.368","OBJECT_TYPE":"PAYLOAD","OBJECT_NAME":"STARLINK-1287","MEAN_MOTION_DDOT":"0.0000000000000"},{"TLE_LINE2":"2 45372  53.0552 274.8767 0002188  63.9095 296.2119 15.06401203 96440","CLASSIFICATION_TYPE":"U","SEMIMAJOR_AXIS":"6925.345","TLE_LINE1":"1 45372U 20019N   21346.91084644  .00000915  00000-0  80355-4 0  9995","ELEMENT_SET_NO":"999","GP_ID":"191585858","OBJECT_TYPE":"PAYLOAD","MEAN_MOTION_DDOT":"0.0000000000000","OBJECT_NAME":"STARLINK-1288","MEAN_ANOMALY":"296.2119","MEAN_MOTION":"15.06401203","RA_OF_ASC_NODE":"274.8767","FILE":"3238376","REV_AT_EPOCH":"9644","NORAD_CAT_ID":"45372","CENTER_NAME":"EARTH","BSTAR":"0.00008035500000","MEAN_ELEMENT_THEORY":"SGP4","DECAY_DATE":null,"RCS_SIZE":"LARGE","PERIOD":"95.592","SITE":"AFETR","ARG_OF_PERICENTER":"63.9095","EPHEMERIS_TYPE":"0","INCLINATION":"53.0552","TIME_SYSTEM":"UTC","EPOCH":"2021-12-12T21:51:37.132416","REF_FRAME":"TEME","OBJECT_ID":"2020-019N","APOAPSIS":"548.725","ECCENTRICITY":"0.00021880","LAUNCH_DATE":"2020-03-18","PERIAPSIS":"545.695","MEAN_MOTION_DOT":"0.00000915","COUNTRY_CODE":"US"},{"OBJECT_ID":"2020-019P","REF_FRAME":"TEME","APOAPSIS":"548.950","TIME_SYSTEM":"UTC","EPOCH":"2021-12-12T23:00:37.689120","SITE":"AFETR","ARG_OF_PERICENTER":"56.4489","INCLINATION":"53.0543","EPHEMERIS_TYPE":"0","COUNTRY_CODE":"US","MEAN_MOTION_DOT":"-0.00000743","PERIAPSIS":"545.506","LAUNCH_DATE":"2020-03-18","ECCENTRICITY":"0.00024860","OBJECT_TYPE":"PAYLOAD","MEAN_MOTION_DDOT":"0.0000000000000","OBJECT_NAME":"STARLINK-1295","CLASSIFICATION_TYPE":"U","TLE_LINE2":"2 45373  53.0543 274.6561 0002486  56.4489 303.6738 15.06395291 96456","GP_ID":"191584604","ELEMENT_SET_NO":"999","TLE_LINE1":"1 45373U 20019P   21346.95876955 -.00000743  00000-0 -30971-4 0  9994","SEMIMAJOR_AXIS":"6925.363","CENTER_NAME":"EARTH","NORAD_CAT_ID":"45373","DECAY_DATE":null,"PERIOD":"95.592","RCS_SIZE":"LARGE","BSTAR":"-0.00003097100000","MEAN_ELEMENT_THEORY":"SGP4","FILE":"3238376","RA_OF_ASC_NODE":"274.6561","REV_AT_EPOCH":"9645","MEAN_MOTION":"15.06395291","MEAN_ANOMALY":"303.6738"},{"RA_OF_ASC_NODE":"274.6740","FILE":"3238376","REV_AT_EPOCH":"9645","NORAD_CAT_ID":"45374","CENTER_NAME":"EARTH","BSTAR":"0.00007683500000","MEAN_ELEMENT_THEORY":"SGP4","RCS_SIZE":"LARGE","DECAY_DATE":null,"PERIOD":"95.592","MEAN_ANOMALY":"298.9247","MEAN_MOTION":"15.06396761","OBJECT_TYPE":"PAYLOAD","OBJECT_NAME":"STARLINK-1300","MEAN_MOTION_DDOT":"0.0000000000000","TLE_LINE2":"2 45374  53.0545 274.6740 0002510  61.1994 298.9247 15.06396761 96454","CLASSIFICATION_TYPE":"U","TLE_LINE1":"1 45374U 20019Q   21346.95509036  .00000863  00000-0  76835-4 0  9998","SEMIMAJOR_AXIS":"6925.358","ELEMENT_SET_NO":"999","GP_ID":"191584856","PERIAPSIS":"545.485","MEAN_MOTION_DOT":"0.00000863","COUNTRY_CODE":"US","ECCENTRICITY":"0.00025100","LAUNCH_DATE":"2020-03-18","TIME_SYSTEM":"UTC","EPOCH":"2021-12-12T22:55:19.807104","REF_FRAME":"TEME","OBJECT_ID":"2020-019Q","APOAPSIS":"548.962","SITE":"AFETR","ARG_OF_PERICENTER":"61.1994","EPHEMERIS_TYPE":"0","INCLINATION":"53.0545"},{"ARG_OF_PERICENTER":"62.0748","SITE":"AFETR","EPHEMERIS_TYPE":"0","INCLINATION":"53.0555","REF_FRAME":"TEME","OBJECT_ID":"2020-019R","APOAPSIS":"548.770","TIME_SYSTEM":"UTC","EPOCH":"2021-12-12T21:41:00.604608","LAUNCH_DATE":"2020-03-18","ECCENTRICITY":"0.00022350","COUNTRY_CODE":"US","PERIAPSIS":"545.674","MEAN_MOTION_DOT":"-0.00000676","TLE_LINE2":"2 45375  53.0555 274.9109 0002235  62.0748 298.0467 15.06397233 96448","CLASSIFICATION_TYPE":"U","ELEMENT_SET_NO":"999","TLE_LINE1":"1 45375U 20019R   21346.90347922 -.00000676  00000-0 -26490-4 0  9994","SEMIMAJOR_AXIS":"6925.357","GP_ID":"191585102","OBJECT_TYPE":"PAYLOAD","MEAN_MOTION_DDOT":"0.0000000000000","OBJECT_NAME":"STARLINK-1302","MEAN_MOTION":"15.06397233","MEAN_ANOMALY":"298.0467","NORAD_CAT_ID":"45375","CENTER_NAME":"EARTH","MEAN_ELEMENT_THEORY":"SGP4","BSTAR":"-0.00002649000000","PERIOD":"95.592","DECAY_DATE":null,"RCS_SIZE":"LARGE","RA_OF_ASC_NODE":"274.9109","FILE":"3238376","REV_AT_EPOCH":"9644"},{"MEAN_MOTION":"15.06394166","MEAN_ANOMALY":"293.5011","MEAN_ELEMENT_THEORY":"SGP4","BSTAR":"-0.00002113700000","PERIOD":"95.593","DECAY_DATE":null,"RCS_SIZE":"LARGE","NORAD_CAT_ID":"45376","CENTER_NAME":"EARTH","REV_AT_EPOCH":"9638","RA_OF_ASC_NODE":"276.6137","FILE":"3238339","SEMIMAJOR_AXIS":"6925.366","TLE_LINE1":"1 45376U 20019S   21346.52383158 -.00000597  00000-0 -21137-4 0  9999","ELEMENT_SET_NO":"999","GP_ID":"191564414","TLE_LINE2":"2 45376  53.0552 276.6137 0002095  66.6198 293.5011 15.06394166 96389","CLASSIFICATION_TYPE":"U","MEAN_MOTION_DDOT":"0.0000000000000","OBJECT_NAME":"STARLINK-1304","OBJECT_TYPE":"PAYLOAD","LAUNCH_DATE":"2020-03-18","ECCENTRICITY":"0.00020950","COUNTRY_CODE":"US","PERIAPSIS":"545.781","MEAN_MOTION_DOT":"-0.00000597","EPHEMERIS_TYPE":"0","INCLINATION":"53.0552","SITE":"AFETR","ARG_OF_PERICENTER":"66.6198","APOAPSIS":"548.682","REF_FRAME":"TEME","OBJECT_ID":"2020-019S","EPOCH":"2021-12-12T12:34:19.048512","TIME_SYSTEM":"UTC"},{"CLASSIFICATION_TYPE":"U","TLE_LINE2":"2 45377  53.0541 274.7042 0002386  62.7077 297.4155 15.06399120 96453","GP_ID":"191584104","TLE_LINE1":"1 45377U 20019T   21346.94771542  .00000677  00000-0  64382-4 0  9990","SEMIMAJOR_AXIS":"6925.351","ELEMENT_SET_NO":"999","OBJECT_TYPE":"PAYLOAD","MEAN_MOTION_DDOT":"0.0000000000000","OBJECT_NAME":"STARLINK-1305","MEAN_ANOMALY":"297.4155","MEAN_MOTION":"15.06399120","FILE":"3238376","RA_OF_ASC_NODE":"274.7042","REV_AT_EPOCH":"9645","CENTER_NAME":"EARTH","NORAD_CAT_ID":"45377","PERIOD":"95.592","DECAY_DATE":null,"RCS_SIZE":"LARGE","MEAN_ELEMENT_THEORY":"SGP4","BSTAR":"0.00006438200000","ARG_OF_PERICENTER":"62.7077","SITE":"AFETR","INCLINATION":"53.0541","EPHEMERIS_TYPE":"0","TIME_SYSTEM":"UTC","EPOCH":"2021-12-12T22:44:42.612288","OBJECT_ID":"2020-019T","REF_FRAME":"TEME","APOAPSIS":"548.869","ECCENTRICITY":"0.00023860","LAUNCH_DATE":"2020-03-18","MEAN_MOTION_DOT":"0.00000677","PERIAPSIS":"545.564","COUNTRY_CODE":"US"},{"ECCENTRICITY":"0.00022710","LAUNCH_DATE":"2020-03-18","PERIAPSIS":"545.650","MEAN_MOTION_DOT":"0.00000821","COUNTRY_CODE":"US","ARG_OF_PERICENTER":"62.5347","SITE":"AFETR","EPHEMERIS_TYPE":"0","INCLINATION":"53.0554","TIME_SYSTEM":"UTC","EPOCH":"2021-12-12T19:17:42.690912","REF_FRAME":"TEME","OBJECT_ID":"2020-019U","APOAPSIS":"548.795","MEAN_ANOMALY":"297.5873","MEAN_MOTION":"15.06397093","RA_OF_ASC_NODE":"275.3580","FILE":"3238376","REV_AT_EPOCH":"9643","NORAD_CAT_ID":"45378","CENTER_NAME":"EARTH","BSTAR":"0.00007402300000","MEAN_ELEMENT_THEORY":"SGP4","RCS_SIZE":"LARGE","DECAY_DATE":null,"PERIOD":"95.592","TLE_LINE2":"2 45378  53.0554 275.3580 0002271  62.5347 297.5873 15.06397093 96436","CLASSIFICATION_TYPE":"U","TLE_LINE1":"1 45378U 20019U   21346.80396633  .00000821  00000-0  74023-4 0  9994","SEMIMAJOR_AXIS":"6925.357","ELEMENT_SET_NO":"999","GP_ID":"191584356","OBJECT_TYPE":"PAYLOAD","OBJECT_NAME":"STARLINK-1310","MEAN_MOTION_DDOT":"0.0000000000000"},{"TLE_LINE2":"2 45379  53.0543 275.3363 0002255  60.3569 299.7644 15.06404746 96432","CLASSIFICATION_TYPE":"U","GP_ID":"191585603","ELEMENT_SET_NO":"999","TLE_LINE1":"1 45379U 20019V   21346.80763836  .00000925  00000-0  80969-4 0  9999","SEMIMAJOR_AXIS":"6925.334","OBJECT_TYPE":"PAYLOAD","MEAN_MOTION_DDOT":"0.0000000000000","OBJECT_NAME":"STARLINK-1319","MEAN_ANOMALY":"299.7644","MEAN_MOTION":"15.06404746","FILE":"3238376","RA_OF_ASC_NODE":"275.3363","REV_AT_EPOCH":"9643","CENTER_NAME":"EARTH","NORAD_CAT_ID":"45379","DECAY_DATE":null,"PERIOD":"95.592","RCS_SIZE":"LARGE","BSTAR":"0.00008096900000","MEAN_ELEMENT_THEORY":"SGP4","ARG_OF_PERICENTER":"60.3569","SITE":"AFETR","INCLINATION":"53.0543","EPHEMERIS_TYPE":"0","TIME_SYSTEM":"UTC","EPOCH":"2021-12-12T19:22:59.954304","OBJECT_ID":"2020-019V","REF_FRAME":"TEME","APOAPSIS":"548.761","ECCENTRICITY":"0.00022550","LAUNCH_DATE":"2020-03-18","MEAN_MOTION_DOT":"0.00000925","PERIAPSIS":"545.637","COUNTRY_CODE":"US"}];
